start=new Date('2022-10-23T00:00:00.000Z').valueOf();
sats=[{"SEMIMAJOR_AXIS":"6917.916","ELEMENT_SET_NO":"999","TLE_LINE1":"1 52865U 22062AM  22296.00002315  .00030205  00000-0  19084-2 0  9994","PERIOD":"95.438","EPHEMERIS_TYPE":"0","INCLINATION":"53.2188","LAUNCH_DATE":"2022-06-17","ARG_OF_PERICENTER":"50.1671","MEAN_ELEMENT_THEORY":"SGP4","MEAN_MOTION_DOT":"0.00030205","OBJECT_ID":"2022-062AM","MEAN_MOTION_DDOT":"0.0000000000000","APOAPSIS":"540.991","CENTER_NAME":"EARTH","MEAN_ANOMALY":"308.7380","MEAN_MOTION":"15.08828352","PERIAPSIS":"538.571","OBJECT_NAME":"STARLINK-4274","FILE":"3629758","NORAD_CAT_ID":"52865","REF_FRAME":"TEME","EPOCH":"2022-10-23T00:00:02.000160","REV_AT_EPOCH":"2017","RCS_SIZE":"LARGE","COUNTRY_CODE":"US","GP_ID":"215903217","DECAY_DATE":null,"SITE":"AFETR","OBJECT_TYPE":"PAYLOAD","TIME_SYSTEM":"UTC","RA_OF_ASC_NODE":"162.3680","CLASSIFICATION_TYPE":"U","ECCENTRICITY":"0.00017490","BSTAR":"0.00190840000000","TLE_LINE2":"2 52865  53.2188 162.3680 0001749  50.1671 308.7380 15.08828352 20173"},{"SEMIMAJOR_AXIS":"6917.850","TLE_LINE1":"1 52866U 22062AN  22295.91667824  .00002943  00000-0  20286-3 0  9991","ELEMENT_SET_NO":"999","PERIOD":"95.437","EPHEMERIS_TYPE":"0","INCLINATION":"53.2169","ARG_OF_PERICENTER":"51.5050","LAUNCH_DATE":"2022-06-17","MEAN_ELEMENT_THEORY":"SGP4","OBJECT_ID":"2022-062AN","MEAN_MOTION_DOT":"0.00002943","MEAN_MOTION_DDOT":"0.0000000000000","CENTER_NAME":"EARTH","APOAPSIS":"540.928","OBJECT_NAME":"STARLINK-4272","PERIAPSIS":"538.503","MEAN_ANOMALY":"174.4588","MEAN_MOTION":"15.08849813","NORAD_CAT_ID":"52866","FILE":"3629797","REF_FRAME":"TEME","EPOCH":"2022-10-22T22:00:00.999936","REV_AT_EPOCH":"130","RCS_SIZE":"LARGE","COUNTRY_CODE":"US","GP_ID":"215928544","OBJECT_TYPE":"PAYLOAD","DECAY_DATE":null,"SITE":"AFETR","TIME_SYSTEM":"UTC","RA_OF_ASC_NODE":"162.7324","ECCENTRICITY":"0.00017530","CLASSIFICATION_TYPE":"U","TLE_LINE2":"2 52866  53.2169 162.7324 0001753  51.5050 174.4588 15.08849813  1300","BSTAR":"0.00020286000000"},{"REF_FRAME":"TEME","FILE":"3629758","NORAD_CAT_ID":"52867","MEAN_MOTION":"15.08841709","MEAN_ANOMALY":"1.2851","OBJECT_NAME":"STARLINK-4126","PERIAPSIS":"538.344","CENTER_NAME":"EARTH","APOAPSIS":"541.136","BSTAR":"0.00145060000000","TLE_LINE2":"2 52867  53.2186 162.3735 0002018  37.6309   1.2851 15.08841709 20171","CLASSIFICATION_TYPE":"U","ECCENTRICITY":"0.00020180","RA_OF_ASC_NODE":"162.3735","TIME_SYSTEM":"UTC","SITE":"AFETR","DECAY_DATE":null,"OBJECT_TYPE":"PAYLOAD","GP_ID":"215902985","COUNTRY_CODE":"US","RCS_SIZE":"LARGE","REV_AT_EPOCH":"2017","EPOCH":"2022-10-23T00:00:02.000160","LAUNCH_DATE":"2022-06-17","ARG_OF_PERICENTER":"37.6309","INCLINATION":"53.2186","EPHEMERIS_TYPE":"0","PERIOD":"95.437","ELEMENT_SET_NO":"999","TLE_LINE1":"1 52867U 22062AP  22296.00002315  .00022875  00000-0  14506-2 0  9994","SEMIMAJOR_AXIS":"6917.875","MEAN_MOTION_DDOT":"0.0000000000000","OBJECT_ID":"2022-062AP","MEAN_MOTION_DOT":"0.00022875","MEAN_ELEMENT_THEORY":"SGP4"},{"MEAN_MOTION_DDOT":"0.0000000000000","MEAN_MOTION_DOT":"0.00023840","OBJECT_ID":"2022-062AQ","MEAN_ELEMENT_THEORY":"SGP4","ARG_OF_PERICENTER":"43.7208","LAUNCH_DATE":"2022-06-17","INCLINATION":"53.2182","EPHEMERIS_TYPE":"0","PERIOD":"95.437","TLE_LINE1":"1 52868U 22062AQ  22296.00002315  .00023840  00000-0  15108-2 0  9997","ELEMENT_SET_NO":"999","SEMIMAJOR_AXIS":"6917.872","TLE_LINE2":"2 52868  53.2182 162.3653 0001933  43.7208 310.0166 15.08842835 20179","BSTAR":"0.00151080000000","ECCENTRICITY":"0.00019330","CLASSIFICATION_TYPE":"U","TIME_SYSTEM":"UTC","RA_OF_ASC_NODE":"162.3653","DECAY_DATE":null,"SITE":"AFETR","OBJECT_TYPE":"PAYLOAD","COUNTRY_CODE":"US","GP_ID":"215902980","REV_AT_EPOCH":"2017","RCS_SIZE":"LARGE","EPOCH":"2022-10-23T00:00:02.000160","REF_FRAME":"TEME","NORAD_CAT_ID":"52868","FILE":"3629758","OBJECT_NAME":"STARLINK-4261","PERIAPSIS":"538.399","MEAN_ANOMALY":"310.0166","MEAN_MOTION":"15.08842835","CENTER_NAME":"EARTH","APOAPSIS":"541.074"},{"TIME_SYSTEM":"UTC","RA_OF_ASC_NODE":"152.3675","ECCENTRICITY":"0.00015370","CLASSIFICATION_TYPE":"U","TLE_LINE2":"2 52869  53.2135 152.3675 0001537  49.7169  24.2072 15.08830490 20302","BSTAR":"0.00255570000000","EPOCH":"2022-10-23T00:00:02.000160","REV_AT_EPOCH":"2030","RCS_SIZE":"LARGE","COUNTRY_CODE":"US","GP_ID":"215902984","DECAY_DATE":null,"OBJECT_TYPE":"PAYLOAD","SITE":"AFETR","PERIAPSIS":"538.711","OBJECT_NAME":"STARLINK-4266","MEAN_ANOMALY":"24.2072","MEAN_MOTION":"15.08830490","NORAD_CAT_ID":"52869","FILE":"3629758","REF_FRAME":"TEME","CENTER_NAME":"EARTH","APOAPSIS":"540.838","MEAN_MOTION_DDOT":"0.0000000000000","MEAN_ELEMENT_THEORY":"SGP4","OBJECT_ID":"2022-062AR","MEAN_MOTION_DOT":"0.00040610","INCLINATION":"53.2135","ARG_OF_PERICENTER":"49.7169","LAUNCH_DATE":"2022-06-17","SEMIMAJOR_AXIS":"6917.909","TLE_LINE1":"1 52869U 22062AR  22296.00002315  .00040610  00000-0  25557-2 0  9991","ELEMENT_SET_NO":"999","PERIOD":"95.438","EPHEMERIS_TYPE":"0"},{"REF_FRAME":"TEME","OBJECT_NAME":"STARLINK-4195","PERIAPSIS":"538.358","MEAN_ANOMALY":"341.1667","MEAN_MOTION":"15.08830948","NORAD_CAT_ID":"52870","FILE":"3629759","APOAPSIS":"541.188","CENTER_NAME":"EARTH","TLE_LINE2":"2 52870  53.2195 162.3715 0002045  37.7343 341.1667 15.08830948 20176","BSTAR":"0.00189640000000","RA_OF_ASC_NODE":"162.3715","TIME_SYSTEM":"UTC","ECCENTRICITY":"0.00020450","CLASSIFICATION_TYPE":"U","GP_ID":"215903000","COUNTRY_CODE":"US","DECAY_DATE":null,"OBJECT_TYPE":"PAYLOAD","SITE":"AFETR","EPOCH":"2022-10-23T00:00:02.000160","REV_AT_EPOCH":"2017","RCS_SIZE":"LARGE","INCLINATION":"53.2195","ARG_OF_PERICENTER":"37.7343","LAUNCH_DATE":"2022-06-17","PERIOD":"95.438","EPHEMERIS_TYPE":"0","SEMIMAJOR_AXIS":"6917.908","ELEMENT_SET_NO":"999","TLE_LINE1":"1 52870U 22062AS  22296.00002315  .00030015  00000-0  18964-2 0  9995","MEAN_MOTION_DDOT":"0.0000000000000","MEAN_MOTION_DOT":"0.00030015","OBJECT_ID":"2022-062AS","MEAN_ELEMENT_THEORY":"SGP4"},{"INCLINATION":"53.2136","LAUNCH_DATE":"2022-06-17","ARG_OF_PERICENTER":"55.6490","PERIOD":"95.439","EPHEMERIS_TYPE":"0","SEMIMAJOR_AXIS":"6917.937","ELEMENT_SET_NO":"999","TLE_LINE1":"1 52871U 22062AT  22296.00002315  .00040465  00000-0  25473-2 0  9999","MEAN_MOTION_DDOT":"0.0000000000000","MEAN_MOTION_DOT":"0.00040465","OBJECT_ID":"2022-062AT","MEAN_ELEMENT_THEORY":"SGP4","REF_FRAME":"TEME","MEAN_ANOMALY":"78.2692","MEAN_MOTION":"15.08821424","OBJECT_NAME":"STARLINK-4207","PERIAPSIS":"538.682","FILE":"3629759","NORAD_CAT_ID":"52871","APOAPSIS":"540.922","CENTER_NAME":"EARTH","BSTAR":"0.00254730000000","TLE_LINE2":"2 52871  53.2136 152.3657 0001619  55.6490  78.2692 15.08821424 20315","RA_OF_ASC_NODE":"152.3657","TIME_SYSTEM":"UTC","CLASSIFICATION_TYPE":"U","ECCENTRICITY":"0.00016190","GP_ID":"215903223","COUNTRY_CODE":"US","SITE":"AFETR","DECAY_DATE":null,"OBJECT_TYPE":"PAYLOAD","EPOCH":"2022-10-23T00:00:02.000160","REV_AT_EPOCH":"2031","RCS_SIZE":"LARGE"},{"MEAN_MOTION_DOT":"0.00002468","OBJECT_ID":"2022-062AU","MEAN_ELEMENT_THEORY":"SGP4","MEAN_MOTION_DDOT":"0.0000000000000","EPHEMERIS_TYPE":"0","PERIOD":"95.438","TLE_LINE1":"1 52872U 22062AU  22296.00002315  .00002468  00000-0  17311-3 0  9994","ELEMENT_SET_NO":"999","SEMIMAJOR_AXIS":"6917.881","ARG_OF_PERICENTER":"84.4296","LAUNCH_DATE":"2022-06-17","INCLINATION":"53.2143","OBJECT_TYPE":"PAYLOAD","DECAY_DATE":null,"SITE":"AFETR","GP_ID":"215903002","COUNTRY_CODE":"US","REV_AT_EPOCH":"2030","RCS_SIZE":"LARGE","EPOCH":"2022-10-23T00:00:02.000160","TLE_LINE2":"2 52872  53.2143 152.3676 0001462  84.4296   9.4917 15.08839876 20300","BSTAR":"0.00017311000000","ECCENTRICITY":"0.00014620","CLASSIFICATION_TYPE":"U","RA_OF_ASC_NODE":"152.3676","TIME_SYSTEM":"UTC","APOAPSIS":"540.757","CENTER_NAME":"EARTH","REF_FRAME":"TEME","NORAD_CAT_ID":"52872","FILE":"3629759","PERIAPSIS":"538.734","OBJECT_NAME":"STARLINK-4213","MEAN_ANOMALY":"9.4917","MEAN_MOTION":"15.08839876"},{"RCS_SIZE":"LARGE","REV_AT_EPOCH":"2031","EPOCH":"2022-10-23T00:00:02.000160","DECAY_DATE":null,"OBJECT_TYPE":"PAYLOAD","SITE":"AFETR","COUNTRY_CODE":"US","GP_ID":"215903227","CLASSIFICATION_TYPE":"U","ECCENTRICITY":"0.00014810","TIME_SYSTEM":"UTC","RA_OF_ASC_NODE":"152.3678","BSTAR":"0.00263430000000","TLE_LINE2":"2 52873  53.2143 152.3678 0001481  57.8375 116.1760 15.08804280 20310","CENTER_NAME":"EARTH","APOAPSIS":"540.879","FILE":"3629759","NORAD_CAT_ID":"52873","MEAN_ANOMALY":"116.1760","MEAN_MOTION":"15.08804280","OBJECT_NAME":"STARLINK-4211","PERIAPSIS":"538.830","REF_FRAME":"TEME","MEAN_ELEMENT_THEORY":"SGP4","MEAN_MOTION_DOT":"0.00041845","OBJECT_ID":"2022-062AV","MEAN_MOTION_DDOT":"0.0000000000000","TLE_LINE1":"1 52873U 22062AV  22296.00002315  .00041845  00000-0  26343-2 0  9991","ELEMENT_SET_NO":"999","SEMIMAJOR_AXIS":"6917.990","EPHEMERIS_TYPE":"0","PERIOD":"95.440","LAUNCH_DATE":"2022-06-17","ARG_OF_PERICENTER":"57.8375","INCLINATION":"53.2143"},{"REF_FRAME":"TEME","PERIAPSIS":"538.545","OBJECT_NAME":"STARLINK-4210","MEAN_ANOMALY":"60.8296","MEAN_MOTION":"15.08820852","NORAD_CAT_ID":"52874","FILE":"3629759","APOAPSIS":"541.063","CENTER_NAME":"EARTH","TLE_LINE2":"2 52874  53.2151 152.3666 0001820  53.0812  60.8296 15.08820852 20309","BSTAR":"0.00249550000000","TIME_SYSTEM":"UTC","RA_OF_ASC_NODE":"152.3666","ECCENTRICITY":"0.00018200","CLASSIFICATION_TYPE":"U","GP_ID":"215903228","COUNTRY_CODE":"US","SITE":"AFETR","DECAY_DATE":null,"OBJECT_TYPE":"PAYLOAD","EPOCH":"2022-10-23T00:00:02.000160","REV_AT_EPOCH":"2030","RCS_SIZE":"LARGE","INCLINATION":"53.2151","ARG_OF_PERICENTER":"53.0812","LAUNCH_DATE":"2022-06-17","PERIOD":"95.439","EPHEMERIS_TYPE":"0","SEMIMAJOR_AXIS":"6917.939","ELEMENT_SET_NO":"999","TLE_LINE1":"1 52874U 22062AW  22296.00002315  .00039631  00000-0  24955-2 0  9999","MEAN_MOTION_DDOT":"0.0000000000000","MEAN_MOTION_DOT":"0.00039631","OBJECT_ID":"2022-062AW","MEAN_ELEMENT_THEORY":"SGP4"}];
